STARLINK-1367
1 15539C 20025J   21326.16128982 -.00023757  00000-0 -18164-3 0  3269
2 15539  53.0540 210.3387 0004376  18.8740 107.7468 15.71499377    14
